GSAT0101 (PRN E11)      
1 37846U 11060A   24028.35624209 -.00000085  00000+0  00000+0 0  9995
2 37846  57.1251   5.3428 0003487 338.1701  21.8049  1.70476025 76276
GSAT0102 (PRN E12)      
1 37847U 11060B   24030.34188060 -.00000078  00000+0  00000+0 0  9990
2 37847  57.1258   5.2893 0005185 322.9180 221.6477  1.70475447 76315
GSAT0103 (PRN E19)      
1 38857U 12055A   24028.98207359 -.00000005  00000+0  00000+0 0  9997
2 38857  55.3444 125.4605 0003854 252.9873 106.9884  1.70473665 70177
GSAT0104 (PRN E20)      
1 38858U 12055B   24030.12451735  .00000000  00000+0  00000+0 0  9990
2 38858  55.3439 125.4305 0002000 236.7647 123.2390  1.70473754 70195
GSAT0201 (PRN E18)      
1 40128U 14050A   24029.48830729 -.00000080  00000+0  00000+0 0  9990
2 40128  49.7961 308.6749 1605773 145.8780 225.5940  1.85519706 62188
GSAT0202 (PRN E14)      
1 40129U 14050B   24030.28612478 -.00000078  00000+0  00000+0 0  9997
2 40129  49.8130 307.7174 1604026 146.7170 224.5060  1.85520478 64332
GSAT0203 (PRN E26)      
1 40544U 15017A   24029.89520165 -.00000080  00000+0  00000+0 0  9991
2 40544  56.9206   5.2542 0005243 277.9847  81.9482  1.70475942 54384
GSAT0204 (PRN E22)      
1 40545U 15017B   24029.56263212 -.00000081  00000+0  00000+0 0  9994
2 40545  56.9268   5.2782 0004687 268.4073  91.5308  1.70475721 17429
GSAT0205 (PRN E24)      
1 40889U 15045A   24031.09105256  .00000062  00000+0  00000+0 0  9998
2 40889  55.2840 245.5854 0006427  39.2545 320.8448  1.70473338 52210
GSAT0206 (PRN E30)      
1 40890U 15045B   24028.96535904  .00000054  00000+0  00000+0 0  9990
2 40890  55.2842 245.6399 0004400  37.0387 323.0515  1.70473339 52208
GSAT0209 (PRN E09)      
1 41174U 15079A   24029.13565082 -.00000004  00000+0  00000+0 0  9999
2 41174  55.3623 125.1644 0003163 304.8341  55.1556  1.70474878 49941
GSAT0208 (PRN E08)      
1 41175U 15079B   24028.18216795 -.00000009  00000+0  00000+0 0  9993
2 41175  55.3606 125.1885 0002615 299.8940  60.0939  1.70474730 50342
GSAT0211 (PRN E02)      
1 41549U 16030A   24028.89105892  .00000054  00000+0  00000+0 0  9998
2 41549  55.4319 245.6380 0004118   7.6471 352.4195  1.70473490 47835
GSAT0210 (PRN E01)      
1 41550U 16030B   24030.94209404  .00000062  00000+0  00000+0 0  9992
2 41550  55.4307 245.5825 0002001 354.3612   5.6897  1.70473709 47845
GSAT0207 (PRN E07)      
1 41859U 16069A   24031.18914466  .00000002  00000+0  00000+0 0  9998
2 41859  55.0267 125.1432 0003648 284.3632  75.6217  1.70474864 44828
GSAT0212 (PRN E03)      
1 41860U 16069B   24029.87044267 -.00000002  00000+0  00000+0 0  9997
2 41860  55.0239 125.1764 0001854 319.0400  40.9683  1.70475052 44836
GSAT0213 (PRN E04)      
1 41861U 16069C   24026.13157891 -.00000022  00000+0  00000+0 0  9994
2 41861  55.0254 125.2863 0002948 259.5038 100.4614  1.70473644 44634
GSAT0214 (PRN E05)      
1 41862U 16069D   24030.38425611  .00000000  00000+0  00000+0 0  9990
2 41862  55.0251 125.1618 0005564 277.8519  82.1088  1.70474859 44835
GSAT0215 (PRN E21)      
1 43055U 17079A   24030.28698165  .00000059  00000+0  00000+0 0  9997
2 43055  55.4085 245.4233 0001594   7.3316 352.7251  1.70474209 38176
GSAT0216 (PRN E25)      
1 43056U 17079B   24028.81904635  .00000054  00000+0  00000+0 0  9991
2 43056  55.4093 245.4636 0002431 328.5935  31.4522  1.70474315 38168
GSAT0217 (PRN E27)      
1 43057U 17079C   24030.21261986  .00000059  00000+0  00000+0 0  9999
2 43057  55.4064 245.4241 0003021 351.2876   8.7618  1.70474218 38178
GSAT0218 (PRN E31)      
1 43058U 17079D   24031.01922249  .00000062  00000+0  00000+0 0  9999
2 43058  55.4063 245.3993 0002711 316.3356  43.6956  1.70474277 38180
GSAT0221 (PRN E15)      
1 43564U 18060A   24026.22615296 -.00000091  00000+0  00000+0 0  9993
2 43564  57.3005   5.3184 0005894 289.4782  70.4471  1.70475775 34284
GSAT0222 (PRN E33)      
1 43565U 18060B   24029.96397204 -.00000079  00000+0  00000+0 0  9990
2 43565  57.3037   5.2191 0004629 269.3366  90.6026  1.70475507 34392
GSAT0219 (PRN E36)      
1 43566U 18060C   24028.42632201 -.00000085  00000+0  00000+0 0  9997
2 43566  57.3034   5.2625 0005180 296.7426  63.1941  1.70475789 34344
GSAT0220 (PRN E13)      
1 43567U 18060D   24029.23342750 -.00000082  00000+0  00000+0 0  9992
2 43567  57.3030   5.2412 0005393 293.9020  66.0324  1.70475875 34343
GSAT0223 (PRN E34)      
1 49809U 21116A   24031.43453308 -.00000074  00000+0  00000+0 0  9991
2 49809  57.2944   5.0773 0002727 262.5507  98.6150  1.70475950 13382
GSAT0224 (PRN E10)      
1 49810U 21116B   24030.95813399 -.00000076  00000+0  00000+0 0  9991
2 49810  57.2951   5.0885 0002295 272.0625 269.2203  1.70475971 13392
